[{"OBJECT_NAME":"OBJECT L","OBJECT_ID":"2023-085L","EPOCH":"2026-03-09T23:02:21.999840","MEAN_MOTION":15.29079976,"ECCENTRICITY":0.0005428,"INCLINATION":97.486,"RA_OF_ASC_NODE":178.8598,"ARG_OF_PERICENTER":50.8528,"MEAN_ANOMALY":309.3193,"EPHEMERIS_TYPE":0,"CLASSIFICATION_TYPE":"U","NORAD_CAT_ID":57014,"ELEMENT_SET_NO":999,"REV_AT_EPOCH":15144,"BSTAR":0.00063462603,"MEAN_MOTION_DOT":0.00017871,"MEAN_MOTION_DDOT":0},{"OBJECT_NAME":"STARLINK-31615","OBJECT_ID":"2024-064R","EPOCH":"2026-03-08T05:48:26.860320","MEAN_MOTION":15.27584219,"ECCENTRICITY":0.00011088,"INCLINATION":43.0017,"RA_OF_ASC_NODE":57.4665,"ARG_OF_PERICENTER":254.627,"MEAN_ANOMALY":105.4459,"EPHEMERIS_TYPE":0,"CLASSIFICATION_TYPE":"U","NORAD_CAT_ID":59413,"ELEMENT_SET_NO":999,"REV_AT_EPOCH":10908,"BSTAR":7.4625094e-5,"MEAN_MOTION_DOT":1.792e-5,"MEAN_MOTION_DDOT":0}]
